API VERSION: 1.2
API SOURCE: NASA/JPL Horizons API

*******************************************************************************
 Revised: April 12, 2021                 Earth                              399
 
 GEOPHYSICAL PROPERTIES (revised May 9, 2022):
  Vol. Mean Radius (km)    = 6371.01+-0.02   Mass x10^24 (kg)= 5.97219+-0.0006
  Equ. radius, km          = 6378.137        Mass layers:
  Polar axis, km           = 6356.752          Atmos         = 5.1   x 10^18 kg
  Flattening               = 1/298.257223563   oceans        = 1.4   x 10^21 kg
  Density, g/cm^3          = 5.51              crust         = 2.6   x 10^22 kg
  J2 (IERS 2010)           = 0.00108262545     mantle        = 4.043 x 10^24 kg
  g_p, m/s^2  (polar)      = 9.8321863685      outer core    = 1.835 x 10^24 kg
  g_e, m/s^2  (equatorial) = 9.7803267715      inner core    = 9.675 x 10^22 kg
  g_o, m/s^2               = 9.82022         Fluid core rad  = 3480 km
  GM, km^3/s^2             = 398600.435436   Inner core rad  = 1215 km
  GM 1-sigma, km^3/s^2     =      0.0014     Escape velocity = 11.186 km/s
  Rot. Rate (rad/s)        = 0.00007292115   Surface area:
  Mean sidereal day, hr    = 23.9344695944     land          = 1.48 x 10^8 km
  Mean solar day 2000.0, s = 86400.002         sea           = 3.62 x 10^8 km
  Mean solar day 1820.0, s = 86400.0         Love no., k2    = 0.299
  Moment of inertia        = 0.3308          Atm. pressure   = 1.0 bar
  Mean surface temp (Ts), K= 287.6           Volume, km^3    = 1.08321 x 10^12
  Mean effect. temp (Te), K= 255             Magnetic moment = 0.61 gauss Rp^3
  Geometric albedo         = 0.367           Vis. mag. V(1,0)= -3.86
  Solar Constant (W/m^2)   = 1367.6 (mean), 1414 (perihelion), 1322 (aphelion)
 HELIOCENTRIC ORBIT CHARACTERISTICS:
  Obliquity to orbit, deg  = 23.4392911  Sidereal orb period  = 1.0000174 y
  Orbital speed, km/s      = 29.79       Sidereal orb period  = 365.25636 d
  Mean daily motion, deg/d = 0.9856474   Hill's sphere radius = 234.9       
*******************************************************************************


*******************************************************************************
Ephemeris / API_USER Sun Sep 28 19:01:56 2025 Pasadena, USA      / Horizons
*******************************************************************************
Target body name: Earth (399)                     {source: DE441}
Center body name: Sun (10)                        {source: DE441}
Center-site name: BODY CENTER
*******************************************************************************
Start time      : A.D. 2025-Aug-01 00:00:00.0000 TDB
Stop  time      : A.D. 2025-Aug-31 00:00:00.0000 TDB
Step-size       : 1440 minutes
*******************************************************************************
Center geodetic : 0.0, 0.0, 0.0                   {E-lon(deg),Lat(deg),Alt(km)}
Center cylindric: 0.0, 0.0, 0.0                   {E-lon(deg),Dxy(km),Dz(km)}
Center radii    : 695700.0, 695700.0, 695700.0 km {Equator_a, b, pole_c}
Output units    : KM-S
Calendar mode   : Mixed Julian/Gregorian
Output type     : GEOMETRIC cartesian states
Output format   : 3 (position, velocity, LT, range, range-rate)
Reference frame : Ecliptic of J2000.0
*******************************************************************************
JDTDB
   X     Y     Z
   VX    VY    VZ
   LT    RG    RR
*******************************************************************************
$$SOE
2460910.500000000 = A.D. 2025-Aug-23 00:00:00.0000 TDB 
 X = 1.307318038363215E+08 Y =-7.613840098180003E+07 Z = 3.666939244348556E+03
 VX= 1.451586188416685E+01 VY= 2.563954617164787E+01 VZ=-5.593421320337910E-04
 LT= 5.046402623372821E+02 RG= 1.512873446518586E+08 RR=-3.600383180012979E-01
2460911.500000000 = A.D. 2025-Aug-24 00:00:00.0000 TDB 
 X = 1.319671026210017E+08 Y =-7.391229718026949E+07 Z = 3.621349388297647E+03
 VX= 1.407825059624381E+01 VY= 2.588933283130666E+01 VZ=-5.055615128455315E-04
 LT= 5.045353365246278E+02 RG= 1.512558886845753E+08 RR=-3.680790426260776E-01
2460912.500000000 = A.D. 2025-Aug-25 00:00:00.0000 TDB 
 X = 1.331643967614491E+08 Y =-7.166495057848676E+07 Z = 3.577934763696045E+03
 VX= 1.363616761885544E+01 VY= 2.613126272370780E+01 VZ=-5.087454720804629E-04
 LT= 5.044281240928208E+02 RG= 1.512237472061158E+08 RR=-3.758908201624126E-01
2460913.500000000 = A.D. 2025-Aug-26 00:00:00.0000 TDB 
 X = 1.343233108799389E+08 Y =-6.939704338080508E+07 Z = 3.531876264117658E+03
 VX= 1.318986523041452E+01 VY= 2.636526303170250E+01 VZ=-5.660915637974995E-04
 LT= 5.043187037199903E+02 RG= 1.511909438035896E+08 RR=-3.833889457201536E-01
2460914.500000000 = A.D. 2025-Aug-27 00:00:00.0000 TDB 
 X = 1.354434908478899E+08 Y =-6.710926280109887E+07 Z = 3.478695019952953E+03
 VX= 1.273958224288230E+01 VY= 2.659128918778221E+01 VZ=-6.726693749001811E-04
 LT= 5.042071755845684E+02 RG= 1.511575085097353E+08 RR=-3.905087238146355E-01
2460915.500000000 = A.D. 2025-Aug-28 00:00:00.0000 TDB 
 X = 1.365246024788204E+08 Y =-6.480229898767558E+07 Z = 3.414400606431067E+03
 VX= 1.228554135263135E+01 VY= 2.680931651028273E+01 VZ=-8.222241988882217E-04
 LT= 5.040936558968423E+02 RG= 1.511234761635205E+08 RR=-3.972029963889644E-01
2460916.500000000 = A.D. 2025-Aug-29 00:00:00.0000 TDB 
 X = 1.375663301515884E+08 Y =-6.247684362084329E+07 Z = 3.335577251337469E+03
 VX= 1.182794997858155E+01 VY= 2.701933324475602E+01 VZ=-1.007789814234883E-03
 LT= 5.039782724246320E+02 RG= 1.510888850687740E+08 RR=-4.034379460531841E-01
2460917.500000000 = A.D. 2025-Aug-30 00:00:00.0000 TDB 
 X = 1.385683756083634E+08 Y =-6.013358900911143E+07 Z = 3.239428227301687E+03
 VX= 1.136700322150514E+01 VY= 2.722133609417869E+01 VZ=-1.222037962776312E-03
 LT= 5.038611613149806E+02 RG= 1.510537760413525E+08 RR=-4.091885062774864E-01
2460918.500000000 = A.D. 2025-Aug-31 00:00:00.0000 TDB 
 X = 1.395304570468158E+08 Y =-5.777322744944291E+07 Z = 3.123801755115390E+03
 VX= 1.090288747970807E+01 VY= 2.741532858231355E+01 VZ=-1.457360719124168E-03
 LT= 5.037424651598513E+02 RG= 1.510181918292511E+08 RR=-4.144344757935607E-01
